[{"OBJECT_NAME":"EOSSAT-1","OBJECT_ID":"2023-001AW","EPOCH":"2026-03-09T17:40:07.010400","MEAN_MOTION":15.32339828,"ECCENTRICITY":0.00112629,"INCLINATION":97.3357,"RA_OF_ASC_NODE":130.2294,"ARG_OF_PERICENTER":110.3168,"MEAN_ANOMALY":249.9285,"EPHEMERIS_TYPE":0,"CLASSIFICATION_TYPE":"U","NORAD_CAT_ID":55053,"ELEMENT_SET_NO":999,"REV_AT_EPOCH":17668,"BSTAR":0.00024844399,"MEAN_MOTION_DOT":7.695e-5,"MEAN_MOTION_DDOT":0},{"OBJECT_NAME":"STARLINK-34500","OBJECT_ID":"2025-137V","EPOCH":"2026-03-09T21:24:49.086720","MEAN_MOTION":15.30223305,"ECCENTRICITY":0.00013047,"INCLINATION":53.1573,"RA_OF_ASC_NODE":334.4557,"ARG_OF_PERICENTER":126.8971,"MEAN_ANOMALY":233.215,"EPHEMERIS_TYPE":0,"CLASSIFICATION_TYPE":"U","NORAD_CAT_ID":64613,"ELEMENT_SET_NO":999,"REV_AT_EPOCH":4086,"BSTAR":0.00092339018,"MEAN_MOTION_DOT":0.00027109,"MEAN_MOTION_DDOT":0}]
